CCSDS_OMM_VERS = 2.0
CREATION_DATE  = 
ORIGINATOR     = 

OBJECT_NAME    = SL-3 R/B
OBJECT_ID      = 1982-079B
CENTER_NAME    = EARTH
REF_FRAME      = TEME
TIME_SYSTEM    = UTC
MEAN_ELEMENT_THEORY = SGP/SGP4

EPOCH          = 2026-04-05T13:39:26.512704
MEAN_MOTION    = 15.25170595
ECCENTRICITY   = .00253622
INCLINATION    = 81.1470
RA_OF_ASC_NODE = 161.3367
ARG_OF_PERICENTER = 76.6640
MEAN_ANOMALY   = 283.7419

EPHEMERIS_TYPE = 0
CLASSIFICATION_TYPE = U
NORAD_CAT_ID   = 13403
ELEMENT_SET_NO = 999
REV_AT_EPOCH   = 38179
BSTAR          = .25415335E-3
MEAN_MOTION_DOT = .6458E-4
MEAN_MOTION_DDOT = 0

CCSDS_OMM_VERS = 2.0
CREATION_DATE  = 
ORIGINATOR     = 

OBJECT_NAME    = SL-14 R/B
OBJECT_ID      = 1982-092B
CENTER_NAME    = EARTH
REF_FRAME      = TEME
TIME_SYSTEM    = UTC
MEAN_ELEMENT_THEORY = SGP/SGP4

EPOCH          = 2026-04-05T13:50:23.615808
MEAN_MOTION    = 14.86692366
ECCENTRICITY   = .00195532
INCLINATION    = 82.5649
RA_OF_ASC_NODE = 116.2446
ARG_OF_PERICENTER = 208.0165
MEAN_ANOMALY   = 271.0295

EPHEMERIS_TYPE = 0
CLASSIFICATION_TYPE = U
NORAD_CAT_ID   = 13553
ELEMENT_SET_NO = 999
REV_AT_EPOCH   = 33292
BSTAR          = .6252509E-4
MEAN_MOTION_DOT = .582E-5
MEAN_MOTION_DDOT = 0

CCSDS_OMM_VERS = 2.0
CREATION_DATE  = 
ORIGINATOR     = 

OBJECT_NAME    = SL-3 R/B
OBJECT_ID      = 1983-010B
CENTER_NAME    = EARTH
REF_FRAME      = TEME
TIME_SYSTEM    = UTC
MEAN_ELEMENT_THEORY = SGP/SGP4

EPOCH          = 2026-04-05T02:09:09.119232
MEAN_MOTION    = 15.47283831
ECCENTRICITY   = .00153965
INCLINATION    = 81.1028
RA_OF_ASC_NODE = 329.8610
ARG_OF_PERICENTER = 318.9513
MEAN_ANOMALY   = 41.0573

EPHEMERIS_TYPE = 0
CLASSIFICATION_TYPE = U
NORAD_CAT_ID   = 13819
ELEMENT_SET_NO = 999
REV_AT_EPOCH   = 36202
BSTAR          = .33474362E-3
MEAN_MOTION_DOT = .17184E-3
MEAN_MOTION_DDOT = 0

CCSDS_OMM_VERS = 2.0
CREATION_DATE  = 
ORIGINATOR     = 

OBJECT_NAME    = SL-3 R/B
OBJECT_ID      = 1983-075B
CENTER_NAME    = EARTH
REF_FRAME      = TEME
TIME_SYSTEM    = UTC
MEAN_ELEMENT_THEORY = SGP/SGP4

EPOCH          = 2026-04-05T13:04:21.648000
MEAN_MOTION    = 15.39100817
ECCENTRICITY   = .00229061
INCLINATION    = 97.6137
RA_OF_ASC_NODE = 101.1524
ARG_OF_PERICENTER = 130.5557
MEAN_ANOMALY   = 229.7687

EPHEMERIS_TYPE = 0
CLASSIFICATION_TYPE = U
NORAD_CAT_ID   = 14208
ELEMENT_SET_NO = 999
REV_AT_EPOCH   = 33428
BSTAR          = .34638965E-3
MEAN_MOTION_DOT = .1346E-3
MEAN_MOTION_DDOT = 0

CCSDS_OMM_VERS = 2.0
CREATION_DATE  = 
ORIGINATOR     = 

OBJECT_NAME    = COSMOS 1536
OBJECT_ID      = 1984-013A
CENTER_NAME    = EARTH
REF_FRAME      = TEME
TIME_SYSTEM    = UTC
MEAN_ELEMENT_THEORY = SGP/SGP4

EPOCH          = 2026-04-05T10:37:50.835072
MEAN_MOTION    = 15.24226065
ECCENTRICITY   = .00142677
INCLINATION    = 82.5422
RA_OF_ASC_NODE = 81.2410
ARG_OF_PERICENTER = 179.9442
MEAN_ANOMALY   = 180.1800

EPHEMERIS_TYPE = 0
CLASSIFICATION_TYPE = U
NORAD_CAT_ID   = 14699
ELEMENT_SET_NO = 999
REV_AT_EPOCH   = 27669
BSTAR          = .35976962E-3
MEAN_MOTION_DOT = .8828E-4
MEAN_MOTION_DDOT = 0

CCSDS_OMM_VERS = 2.0
CREATION_DATE  = 
ORIGINATOR     = 

OBJECT_NAME    = SL-14 R/B
OBJECT_ID      = 1984-027B
CENTER_NAME    = EARTH
REF_FRAME      = TEME
TIME_SYSTEM    = UTC
MEAN_ELEMENT_THEORY = SGP/SGP4

EPOCH          = 2026-04-05T15:04:07.810752
MEAN_MOTION    = 14.86008263
ECCENTRICITY   = .00166621
INCLINATION    = 82.5429
RA_OF_ASC_NODE = 219.7478
ARG_OF_PERICENTER = 241.9988
MEAN_ANOMALY   = 117.9543

EPHEMERIS_TYPE = 0
CLASSIFICATION_TYPE = U
NORAD_CAT_ID   = 14820
ELEMENT_SET_NO = 999
REV_AT_EPOCH   = 25163
BSTAR          = .87006437E-4
MEAN_MOTION_DOT = .786E-5
MEAN_MOTION_DDOT = 0

CCSDS_OMM_VERS = 2.0
CREATION_DATE  = 
ORIGINATOR     = 

OBJECT_NAME    = SL-8 R/B
OBJECT_ID      = 1985-006B
CENTER_NAME    = EARTH
REF_FRAME      = TEME
TIME_SYSTEM    = UTC
MEAN_ELEMENT_THEORY = SGP/SGP4

EPOCH          = 2026-04-05T13:48:37.698048
MEAN_MOTION    = 14.37803646
ECCENTRICITY   = .00174488
INCLINATION    = 74.0462
RA_OF_ASC_NODE = 211.6746
ARG_OF_PERICENTER = 121.2922
MEAN_ANOMALY   = 249.9700

EPHEMERIS_TYPE = 0
CLASSIFICATION_TYPE = U
NORAD_CAT_ID   = 15483
ELEMENT_SET_NO = 999
REV_AT_EPOCH   = 15789
BSTAR          = .14273462E-3
MEAN_MOTION_DOT = .405E-5
MEAN_MOTION_DDOT = 0

CCSDS_OMM_VERS = 2.0
CREATION_DATE  = 
ORIGINATOR     = 

OBJECT_NAME    = SL-12 R/B(2)
OBJECT_ID      = 1985-042D
CENTER_NAME    = EARTH
REF_FRAME      = TEME
TIME_SYSTEM    = UTC
MEAN_ELEMENT_THEORY = SGP/SGP4

EPOCH          = 2026-04-05T14:06:29.844288
MEAN_MOTION    = 14.21990815
ECCENTRICITY   = .0032849
INCLINATION    = 71.1102
RA_OF_ASC_NODE = 30.8988
ARG_OF_PERICENTER = 83.4485
MEAN_ANOMALY   = 88.5582

EPHEMERIS_TYPE = 0
CLASSIFICATION_TYPE = U
NORAD_CAT_ID   = 15772
ELEMENT_SET_NO = 999
REV_AT_EPOCH   = 11821
BSTAR          = .10020176E-3
MEAN_MOTION_DOT = .175E-5
MEAN_MOTION_DDOT = 0

CCSDS_OMM_VERS = 2.0
CREATION_DATE  = 
ORIGINATOR     = 

OBJECT_NAME    = SL-14 R/B
OBJECT_ID      = 1985-069B
CENTER_NAME    = EARTH
REF_FRAME      = TEME
TIME_SYSTEM    = UTC
MEAN_ELEMENT_THEORY = SGP/SGP4

EPOCH          = 2026-04-05T03:11:50.740224
MEAN_MOTION    = 14.86463317
ECCENTRICITY   = .00203152
INCLINATION    = 82.5304
RA_OF_ASC_NODE = 0.0751
ARG_OF_PERICENTER = 103.6390
MEAN_ANOMALY   = 256.7091

EPHEMERIS_TYPE = 0
CLASSIFICATION_TYPE = U
NORAD_CAT_ID   = 15945
ELEMENT_SET_NO = 999
REV_AT_EPOCH   = 17676
BSTAR          = .70979045E-4
MEAN_MOTION_DOT = .654E-5
MEAN_MOTION_DDOT = 0

CCSDS_OMM_VERS = 2.0
CREATION_DATE  = 
ORIGINATOR     = 

OBJECT_NAME    = SL-16 R/B
OBJECT_ID      = 1985-097B
CENTER_NAME    = EARTH
REF_FRAME      = TEME
TIME_SYSTEM    = UTC
MEAN_ELEMENT_THEORY = SGP/SGP4

EPOCH          = 2026-04-05T09:43:25.980384
MEAN_MOTION    = 14.16602420
ECCENTRICITY   = .00091505
INCLINATION    = 71.0009
RA_OF_ASC_NODE = 84.3069
ARG_OF_PERICENTER = 227.6804
MEAN_ANOMALY   = 241.5783

EPHEMERIS_TYPE = 0
CLASSIFICATION_TYPE = U
NORAD_CAT_ID   = 16182
ELEMENT_SET_NO = 999
REV_AT_EPOCH   = 9101
BSTAR          = -.36920167E-4
MEAN_MOTION_DOT = -.122E-5
MEAN_MOTION_DDOT = 0

CCSDS_OMM_VERS = 2.0
CREATION_DATE  = 
ORIGINATOR     = 

OBJECT_NAME    = SL-14 R/B
OBJECT_ID      = 1986-006B
CENTER_NAME    = EARTH
REF_FRAME      = TEME
TIME_SYSTEM    = UTC
MEAN_ELEMENT_THEORY = SGP/SGP4

EPOCH          = 2026-04-05T10:33:34.384320
MEAN_MOTION    = 14.86864944
ECCENTRICITY   = .00764206
INCLINATION    = 82.5264
RA_OF_ASC_NODE = 234.5565
ARG_OF_PERICENTER = 182.9260
MEAN_ANOMALY   = 177.1522

EPHEMERIS_TYPE = 0
CLASSIFICATION_TYPE = U
NORAD_CAT_ID   = 16496
ELEMENT_SET_NO = 999
REV_AT_EPOCH   = 15318
BSTAR          = .13871736E-3
MEAN_MOTION_DOT = .1332E-4
MEAN_MOTION_DDOT = 0

CCSDS_OMM_VERS = 2.0
CREATION_DATE  = 
ORIGINATOR     = 

OBJECT_NAME    = COSMOS 1743
OBJECT_ID      = 1986-034A
CENTER_NAME    = EARTH
REF_FRAME      = TEME
TIME_SYSTEM    = UTC
MEAN_ELEMENT_THEORY = SGP/SGP4

EPOCH          = 2026-04-05T07:58:24.605472
MEAN_MOTION    = 15.61046953
ECCENTRICITY   = .0005921
INCLINATION    = 82.5317
RA_OF_ASC_NODE = 45.8217
ARG_OF_PERICENTER = 153.0895
MEAN_ANOMALY   = 207.0670

EPHEMERIS_TYPE = 0
CLASSIFICATION_TYPE = U
NORAD_CAT_ID   = 16719
ELEMENT_SET_NO = 999
REV_AT_EPOCH   = 18440
BSTAR          = .66721E-3
MEAN_MOTION_DOT = .56428E-3
MEAN_MOTION_DDOT = 0

