SL-3 R/B                
1 13403U 82079B   26095.56905686  .00006458  00000+0  25415-3 0  9996
2 13403  81.1470 161.3367 0025362  76.6640 283.7419 15.25170595381790
SL-14 R/B               
1 13553U 82092B   26095.57666222  .00000582  00000+0  62525-4 0  9994
2 13553  82.5649 116.2446 0019553 208.0165 271.0295 14.86692366332928
SL-3 R/B                
1 13819U 83010B   26095.08968888  .00017184  00000+0  33474-3 0  9995
2 13819  81.1028 329.8610 0015396 318.9513  41.0573 15.47283831362022
SL-3 R/B                
1 14208U 83075B   26095.54469500  .00013460  00000+0  34639-3 0  9994
2 14208  97.6137 101.1524 0022906 130.5557 229.7687 15.39100817334285
COSMOS 1536             
1 14699U 84013A   26095.44294948  .00008828  00000+0  35977-3 0  9990
2 14699  82.5422  81.2410 0014267 179.9442 180.1800 15.24226065276697
SL-14 R/B               
1 14820U 84027B   26095.62786818  .00000786  00000+0  87006-4 0  9999
2 14820  82.5429 219.7478 0016662 241.9988 117.9543 14.86008263251632
SL-8 R/B                
1 15483U 85006B   26095.57543632  .00000405  00000+0  14273-3 0  9995
2 15483  74.0462 211.6746 0017448 121.2922 249.9700 14.37803646157899
SL-12 R/B(2)            
1 15772U 85042D   26095.58784542  .00000175  00000+0  10020-3 0  9994
2 15772  71.1102  30.8988 0032849  83.4485  88.5582 14.21990815118219
SL-14 R/B               
1 15945U 85069B   26095.13322616  .00000654  00000+0  70979-4 0  9998
2 15945  82.5304   0.0751 0020315 103.6390 256.7091 14.86463317176764
SL-16 R/B               
1 16182U 85097B   26095.40516181 -.00000122  00000+0 -36920-4 0  9995
2 16182  71.0009  84.3069 0009150 227.6804 241.5783 14.16602420 91018
SL-14 R/B               
1 16496U 86006B   26095.43998130  .00001332  00000+0  13872-3 0  9997
2 16496  82.5264 234.5565 0076420 182.9260 177.1522 14.86864944153189
COSMOS 1743             
1 16719U 86034A   26095.33222923  .00056428  00000+0  66721-3 0  9992
2 16719  82.5317  45.8217 0005921 153.0895 207.0670 15.61046953184406
